$$SOE
2460154.500000000, A.D. 2023-Jul-29 00:00:00.0000, 1.352108700046797E+08, 3.343462909622321E+08, 3.499396320513569E+07,
2460161.500000000, A.D. 2023-Aug-05 00:00:00.0000, 1.246627521996678E+08, 3.380109034317476E+08, 3.615062911712034E+07,
2460168.500000000, A.D. 2023-Aug-12 00:00:00.0000, 1.139872522626706E+08, 3.413298512091027E+08, 3.727031092253090E+07,
2460175.500000000, A.D. 2023-Aug-19 00:00:00.0000, 1.031949990103299E+08, 3.442988949305498E+08, 3.835177196762477E+07,
2460182.500000000, A.D. 2023-Aug-26 00:00:00.0000, 9.229677435435158E+07, 3.469140710721740E+08, 3.939380187084490E+07,
2460189.500000000, A.D. 2023-Sep-02 00:00:00.0000, 8.130350941353884E+07, 3.491716971788315E+08, 4.039521745117238E+07,
2460196.500000000, A.D. 2023-Sep-09 00:00:00.0000, 7.022628048471582E+07, 3.510683771673239E+08, 4.135486367940721E+07,
2460203.500000000, A.D. 2023-Sep-16 00:00:00.0000, 5.907630501850390E+07, 3.526010066455006E+08, 4.227161463365011E+07,
2460210.500000000, A.D. 2023-Sep-23 00:00:00.0000, 4.786493799284317E+07, 3.537667785337708E+08, 4.314437444584283E+07,
2460217.500000000, A.D. 2023-Sep-30 00:00:00.0000, 3.660366832198539E+07, 3.545631901806164E+08, 4.397207836968856E+07,
2460224.500000000, A.D. 2023-Oct-07 00:00:00.0000, 2.530411292695004E+07, 3.549880514245907E+08, 4.475369414231384E+07,
2460231.500000000, A.D. 2023-Oct-14 00:00:00.0000, 1.397800948025316E+07, 3.550394902773927E+08, 4.548822327377459E+07,
2460238.500000000, A.D. 2023-Oct-21 00:00:00.0000, 2.637211024102728E+06, 3.547159578300554E+08, 4.617470210187793E+07,
2460245.500000000, A.D. 2023-Oct-28 00:00:00.0000, -8.706318982008560E+06, 3.540162346408093E+08, 4.681220292938857E+07,
2460252.500000000, A.D. 2023-Nov-04 00:00:00.0000, -2.004051245453611E+07, 3.529394378202078E+08, 4.739983529469718E+07,
2460259.500000000, A.D. 2023-Nov-11 00:00:00.0000, -3.135320316620906E+07, 3.514850281945061E+08, 4.793674730901404E+07,
2460266.500000000, A.D. 2023-Nov-18 00:00:00.0000, -4.263213372143369E+07, 3.496528174612308E+08, 4.842212703263104E+07,
2460273.500000000, A.D. 2023-Nov-25 00:00:00.0000, -5.386496298591005E+07, 3.474429753385808E+08, 4.885520388422453E+07,
2460280.500000000, A.D. 2023-Dec-02 00:00:00.0000, -6.503927397570723E+07, 3.448560366810820E+08, 4.923525008038497E+07,
2460287.500000000, A.D. 2023-Dec-09 00:00:00.0000, -7.614258215813515E+07, 3.418929084893225E+08, 4.956158209518443E+07,
2460294.500000000, A.D. 2023-Dec-16 00:00:00.0000, -8.716234390234104E+07, 3.385548768109113E+08, 4.983356211553262E+07,
2460301.500000000, A.D. 2023-Dec-23 00:00:00.0000, -9.808596475457329E+07, 3.348436141995372E+08, 5.005059951613894E+07,
2460308.500000000, A.D. 2023-Dec-30 00:00:00.0000, -1.089008089010648E+08, 3.307611887579666E+08, 5.021215256122026E+07,
2460315.500000000, A.D. 2024-Jan-06 00:00:00.0000, -1.195942116083272E+08, 3.263100723740038E+08, 5.031773029890189E+07,
2460322.500000000, A.D. 2024-Jan-13 00:00:00.0000, -1.301534914867216E+08, 3.214931462969153E+08, 5.036689420337410E+07,
2460329.500000000, A.D. 2024-Jan-20 00:00:00.0000, -1.405659613820626E+08, 3.163137070977173E+08, 5.035925969992936E+07,
2460336.500000000, A.D. 2024-Jan-27 00:00:00.0000, -1.508189399471375E+08, 3.107754736293673E+08, 5.029449780771494E+07,
2460343.500000000, A.D. 2024-Feb-03 00:00:00.0000, -1.608997643413230E+08, 3.048825939932727E+08, 5.017233685626090E+07,
2460350.500000000, A.D. 2024-Feb-10 00:00:00.0000, -1.707958038023623E+08, 2.986396521734165E+08, 4.999256422156291E+07,
2460357.500000000, A.D. 2024-Feb-17 00:00:00.0000, -1.804944739714157E+08, 2.920516742991738E+08, 4.975502806547913E+07,
2460364.500000000, A.D. 2024-Feb-24 00:00:00.0000, -1.899832519511560E+08, 2.851241345037671E+08, 4.945963907207930E+07,
2460371.500000000, A.D. 2024-Mar-02 00:00:00.0000, -1.992496920785559E+08, 2.778629602949947E+08, 4.910637217044272E+07,
2460378.500000000, A.D. 2024-Mar-09 00:00:00.0000, -2.082814422800941E+08, 2.702745373203850E+08, 4.869526821963570E+07,
2460385.500000000, A.D. 2024-Mar-16 00:00:00.0000, -2.170662606167316E+08, 2.623657136644991E+08, 4.822643562812729E+07,
2460392.500000000, A.D. 2024-Mar-23 00:00:00.0000, -2.255920321224354E+08, 2.541438047241510E+08, 4.770005199938403E+07,
2460399.500000000, A.D. 2024-Mar-30 00:00:00.0000, -2.338467881762907E+08, 2.456165985717708E+08, 4.711636599857092E+07,
2460406.500000000, A.D. 2024-Apr-06 00:00:00.0000, -2.418187281418125E+08, 2.367923583763889E+08, 4.647569913230507E+07,
2460413.500000000, A.D. 2024-Apr-13 00:00:00.0000, -2.494962397005788E+08, 2.276798226432974E+08, 4.577844717237683E+07,
2460420.500000000, A.D. 2024-Apr-20 00:00:00.0000, -2.568679188163963E+08, 2.182882058712125E+08, 4.502508151859365E+07,
2460427.500000000, A.D. 2024-Apr-27 00:00:00.0000, -2.639225908278219E+08, 2.086271989974630E+08, 4.421615058403166E+07,
2460434.500000000, A.D. 2024-May-04 00:00:00.0000, -2.706493325487196E+08, 1.987069688572473E+08, 4.335228112569041E+07,
2460441.500000000, A.D. 2024-May-11 00:00:00.0000, -2.770374950988389E+08, 1.885381564803589E+08, 4.243417947802875E+07,
2460448.500000000, A.D. 2024-May-18 00:00:00.0000, -2.830767273371181E+08, 1.781318741721612E+08, 4.146263267105691E+07,
2460455.500000000, A.D. 2024-May-25 00:00:00.0000, -2.887569998208236E+08, 1.674997012980582E+08, 4.043850941733277E+07,
2460462.500000000, A.D. 2024-Jun-01 00:00:00.0000, -2.940686291708656E+08, 1.566536786418822E+08, 3.936276094461736E+07,
2460469.500000000, A.D. 2024-Jun-08 00:00:00.0000, -2.990023025290115E+08, 1.456063012449306E+08, 3.823642163641455E+07,
2460476.500000000, A.D. 2024-Jun-15 00:00:00.0000, -3.035491016311494E+08, 1.343705102024812E+08, 3.706060947478822E+07,
2460483.500000000, A.D. 2024-Jun-22 00:00:00.0000, -3.077005274185297E+08, 1.229596845270294E+08, 3.583652646018228E+07,
2460490.500000000, A.D. 2024-Jun-29 00:00:00.0000, -3.114485272222345E+08, 1.113876311971282E+08, 3.456545904110920E+07,
2460497.500000000, A.D. 2024-Jul-06 00:00:00.0000, -3.147855217809911E+08, 9.966857087070948E+07, 3.324877809664105E+07,
2460504.500000000, A.D. 2024-Jul-13 00:00:00.0000, -3.177044300297499E+08, 8.781712203994888E+07, 3.188793851029069E+07,
2460511.500000000, A.D. 2024-Jul-20 00:00:00.0000, -3.201986935280669E+08, 7.584828472967690E+07, 3.048447859805914E+07,
2460518.500000000, A.D. 2024-Jul-27 00:00:00.0000, -3.222623010698094E+08, 6.377742274818291E+07, 2.904001936056274E+07,
2460525.500000000, A.D. 2024-Aug-03 00:00:00.0000, -3.238898130727873E+08, 5.162024409922712E+07, 2.755626349175093E+07,
2460532.500000000, A.D. 2024-Aug-10 00:00:00.0000, -3.250763854372216E+08, 3.939277954092661E+07, 2.603499411645785E+07,
2460539.500000000, A.D. 2024-Aug-17 00:00:00.0000, -3.258177926720176E+08, 2.711135930612151E+07, 2.447807324298096E+07,
2460546.500000000, A.D. 2024-Aug-24 00:00:00.0000, -3.261104501097071E+08, 1.479258795999707E+07, 2.288743991757831E+07,
2460553.500000000, A.D. 2024-Aug-31 00:00:00.0000, -3.259514349516915E+08, 2.453317344830360E+06, 2.126510805949514E+07,
2460560.500000000, A.D. 2024-Sep-07 00:00:00.0000, -3.253385056397651E+08, -9.889382229658363E+06, 1.961316394955229E+07,
2460567.500000000, A.D. 2024-Sep-14 00:00:00.0000, -3.242701193255345E+08, -2.221825150205886E+07, 1.793376344297274E+07,
2460574.500000000, A.D. 2024-Sep-21 00:00:00.0000, -3.227454493169196E+08, -3.451587200202290E+07, 1.622912912415651E+07,
2460581.500000000, A.D. 2024-Sep-28 00:00:00.0000, -3.207644028412536E+08, -4.676469917025916E+07, 1.450154718389863E+07,
2460588.500000000, A.D. 2024-Oct-05 00:00:00.0000, -3.183276353119032E+08, -5.894709876090650E+07, 1.275336368464711E+07,
2460595.500000000, A.D. 2024-Oct-12 00:00:00.0000, -3.154365613126136E+08, -7.104538343595868E+07, 1.098698049493921E+07,
2460602.500000000, A.D. 2024-Oct-19 00:00:00.0000, -3.120933639061671E+08, -8.304184970284067E+07, 9.204851038115598E+06,
2460609.500000000, A.D. 2024-Oct-26 00:00:00.0000, -3.083010021712054E+08, -9.491881586725165E+07, 7.409475801792488E+06,
2460616.500000000, A.D. 2024-Nov-02 00:00:00.0000, -3.040632165971385E+08, -1.066586610038056E+08, 5.603397584157892E+06,
2460623.500000000, A.D. 2024-Nov-09 00:00:00.0000, -2.993845321374370E+08, -1.182438647616959E+08, 3.789196484357998E+06,
2460630.500000000, A.D. 2024-Nov-16 00:00:00.0000, -2.942702588027229E+08, -1.296570478311635E+08, 1.969484651406623E+06,
2460637.500000000, A.D. 2024-Nov-23 00:00:00.0000, -2.887264896681866E+08, -1.408810129368368E+08, 1.469008022958636E+05,
2460644.500000000, A.D. 2024-Nov-30 00:00:00.0000, -2.827600960248296E+08, -1.518987862077028E+08, -1.675895491976328E+06,
2460651.500000000, A.D. 2024-Dec-07 00:00:00.0000, -2.763787192100876E+08, -1.626936583020776E+08, -3.496229733074494E+06,
2460658.500000000, A.D. 2024-Dec-14 00:00:00.0000, -2.695907597785084E+08, -1.732492238559213E+08, -5.311418445979707E+06,
2460665.500000000, A.D. 2024-Dec-21 00:00:00.0000, -2.624053663211136E+08, -1.835494202845295E+08, -7.118775015180342E+06,
2460672.500000000, A.D. 2024-Dec-28 00:00:00.0000, -2.548324219740171E+08, -1.935785686953079E+08, -8.915615801403105E+06,
2460679.500000000, A.D. 2025-Jan-04 00:00:00.0000, -2.468825260558283E+08, -2.033214143250441E+08, -1.069926655309182E+07,
2460686.500000000, A.D. 2025-Jan-11 00:00:00.0000, -2.385669727094852E+08, -2.127631646288639E+08, -1.246706877854761E+07,
2460693.500000000, A.D. 2025-Jan-18 00:00:00.0000, -2.298977275353010E+08, -2.218895257289798E+08, -1.421638603727637E+07,
2460700.500000000, A.D. 2025-Jan-25 00:00:00.0000, -2.208874020593351E+08, -2.306867374963378E+08, -1.594461017911379E+07,
2460707.500000000, A.D. 2025-Feb-01 00:00:00.0000, -2.115492259570186E+08, -2.391416071064995E+08, -1.764916751890112E+07,
2460714.500000000, A.D. 2025-Feb-08 00:00:00.0000, -2.018970171048852E+08, -2.472415408719522E+08, -1.932752491867000E+07,
2460721.500000000, A.D. 2025-Feb-15 00:00:00.0000, -1.919451495799051E+08, -2.549745742028014E+08, -2.097719575005361E+07,
$$EOE